<?xml version="1.0" encoding="UTF-8"?>
<kml xmlns="http://www.opengis.net/kml/2.2">
  <Document>
    <name>SILALAS</name>
    <description/>
    <Style id="icon-1577-0288D1-nodesc-normal">
      <IconStyle>
        <color>ffd18802</color>
        <scale>1</scale>
        <Icon>
          <href>https://www.gstatic.com/mapspro/images/stock/503-wht-blank_maps.png</href>
        </Icon>
      </IconStyle>
      <LabelStyle>
        <scale>0</scale>
      </LabelStyle>
      <BalloonStyle>
        <text><![CDATA[<h3>$[name]</h3>]]></text>
      </BalloonStyle>
    </Style>
    <Style id="icon-1577-0288D1-nodesc-highlight">
      <IconStyle>
        <color>ffd18802</color>
        <scale>1</scale>
        <Icon>
          <href>https://www.gstatic.com/mapspro/images/stock/503-wht-blank_maps.png</href>
        </Icon>
      </IconStyle>
      <LabelStyle>
        <scale>1</scale>
      </LabelStyle>
      <BalloonStyle>
        <text><![CDATA[<h3>$[name]</h3>]]></text>
      </BalloonStyle>
    </Style>
    <StyleMap id="icon-1577-0288D1-nodesc">
      <Pair>
        <key>normal</key>
        <styleUrl>#icon-1577-0288D1-nodesc-normal</styleUrl>
      </Pair>
      <Pair>
        <key>highlight</key>
        <styleUrl>#icon-1577-0288D1-nodesc-highlight</styleUrl>
      </Pair>
    </StyleMap>
    <Style id="icon-1603-FFEA00-nodesc-normal">
      <IconStyle>
        <color>ff00eaff</color>
        <scale>1</scale>
        <Icon>
          <href>https://www.gstatic.com/mapspro/images/stock/503-wht-blank_maps.png</href>
        </Icon>
      </IconStyle>
      <LabelStyle>
        <scale>0</scale>
      </LabelStyle>
      <BalloonStyle>
        <text><![CDATA[<h3>$[name]</h3>]]></text>
      </BalloonStyle>
    </Style>
    <Style id="icon-1603-FFEA00-nodesc-highlight">
      <IconStyle>
        <color>ff00eaff</color>
        <scale>1</scale>
        <Icon>
          <href>https://www.gstatic.com/mapspro/images/stock/503-wht-blank_maps.png</href>
        </Icon>
      </IconStyle>
      <LabelStyle>
        <scale>1</scale>
      </LabelStyle>
      <BalloonStyle>
        <text><![CDATA[<h3>$[name]</h3>]]></text>
      </BalloonStyle>
    </Style>
    <StyleMap id="icon-1603-FFEA00-nodesc">
      <Pair>
        <key>normal</key>
        <styleUrl>#icon-1603-FFEA00-nodesc-normal</styleUrl>
      </Pair>
      <Pair>
        <key>highlight</key>
        <styleUrl>#icon-1603-FFEA00-nodesc-highlight</styleUrl>
      </Pair>
    </StyleMap>
    <Style id="icon-1684-FBC02D-nodesc-normal">
      <IconStyle>
        <color>ff2dc0fb</color>
        <scale>1</scale>
        <Icon>
          <href>https://www.gstatic.com/mapspro/images/stock/503-wht-blank_maps.png</href>
        </Icon>
      </IconStyle>
      <LabelStyle>
        <scale>0</scale>
      </LabelStyle>
      <BalloonStyle>
        <text><![CDATA[<h3>$[name]</h3>]]></text>
      </BalloonStyle>
    </Style>
    <Style id="icon-1684-FBC02D-nodesc-highlight">
      <IconStyle>
        <color>ff2dc0fb</color>
        <scale>1</scale>
        <Icon>
          <href>https://www.gstatic.com/mapspro/images/stock/503-wht-blank_maps.png</href>
        </Icon>
      </IconStyle>
      <LabelStyle>
        <scale>1</scale>
      </LabelStyle>
      <BalloonStyle>
        <text><![CDATA[<h3>$[name]</h3>]]></text>
      </BalloonStyle>
    </Style>
    <StyleMap id="icon-1684-FBC02D-nodesc">
      <Pair>
        <key>normal</key>
        <styleUrl>#icon-1684-FBC02D-nodesc-normal</styleUrl>
      </Pair>
      <Pair>
        <key>highlight</key>
        <styleUrl>#icon-1684-FBC02D-nodesc-highlight</styleUrl>
      </Pair>
    </StyleMap>
    <Style id="icon-1899-0F9D58-nodesc-normal">
      <IconStyle>
        <color>ff589d0f</color>
        <scale>1</scale>
        <Icon>
          <href>https://www.gstatic.com/mapspro/images/stock/503-wht-blank_maps.png</href>
        </Icon>
        <hotSpot x="32" xunits="pixels" y="64" yunits="insetPixels"/>
      </IconStyle>
      <LabelStyle>
        <scale>0</scale>
      </LabelStyle>
      <BalloonStyle>
        <text><![CDATA[<h3>$[name]</h3>]]></text>
      </BalloonStyle>
    </Style>
    <Style id="icon-1899-0F9D58-nodesc-highlight">
      <IconStyle>
        <color>ff589d0f</color>
        <scale>1</scale>
        <Icon>
          <href>https://www.gstatic.com/mapspro/images/stock/503-wht-blank_maps.png</href>
        </Icon>
        <hotSpot x="32" xunits="pixels" y="64" yunits="insetPixels"/>
      </IconStyle>
      <LabelStyle>
        <scale>1</scale>
      </LabelStyle>
      <BalloonStyle>
        <text><![CDATA[<h3>$[name]</h3>]]></text>
      </BalloonStyle>
    </Style>
    <StyleMap id="icon-1899-0F9D58-nodesc">
      <Pair>
        <key>normal</key>
        <styleUrl>#icon-1899-0F9D58-nodesc-normal</styleUrl>
      </Pair>
      <Pair>
        <key>highlight</key>
        <styleUrl>#icon-1899-0F9D58-nodesc-highlight</styleUrl>
      </Pair>
    </StyleMap>
    <Style id="icon-1899-DB4436-nodesc-normal">
      <IconStyle>
        <color>ff3644db</color>
        <scale>1</scale>
        <Icon>
          <href>https://www.gstatic.com/mapspro/images/stock/503-wht-blank_maps.png</href>
        </Icon>
        <hotSpot x="32" xunits="pixels" y="64" yunits="insetPixels"/>
      </IconStyle>
      <LabelStyle>
        <scale>0</scale>
      </LabelStyle>
      <BalloonStyle>
        <text><![CDATA[<h3>$[name]</h3>]]></text>
      </BalloonStyle>
    </Style>
    <Style id="icon-1899-DB4436-nodesc-highlight">
      <IconStyle>
        <color>ff3644db</color>
        <scale>1</scale>
        <Icon>
          <href>https://www.gstatic.com/mapspro/images/stock/503-wht-blank_maps.png</href>
        </Icon>
        <hotSpot x="32" xunits="pixels" y="64" yunits="insetPixels"/>
      </IconStyle>
      <LabelStyle>
        <scale>1</scale>
      </LabelStyle>
      <BalloonStyle>
        <text><![CDATA[<h3>$[name]</h3>]]></text>
      </BalloonStyle>
    </Style>
    <StyleMap id="icon-1899-DB4436-nodesc">
      <Pair>
        <key>normal</key>
        <styleUrl>#icon-1899-DB4436-nodesc-normal</styleUrl>
      </Pair>
      <Pair>
        <key>highlight</key>
        <styleUrl>#icon-1899-DB4436-nodesc-highlight</styleUrl>
      </Pair>
    </StyleMap>
    <Style id="icon-1899-FFEA00-nodesc-normal">
      <IconStyle>
        <color>ff00eaff</color>
        <scale>1</scale>
        <Icon>
          <href>https://www.gstatic.com/mapspro/images/stock/503-wht-blank_maps.png</href>
        </Icon>
        <hotSpot x="32" xunits="pixels" y="64" yunits="insetPixels"/>
      </IconStyle>
      <LabelStyle>
        <scale>0</scale>
      </LabelStyle>
      <BalloonStyle>
        <text><![CDATA[<h3>$[name]</h3>]]></text>
      </BalloonStyle>
    </Style>
    <Style id="icon-1899-FFEA00-nodesc-highlight">
      <IconStyle>
        <color>ff00eaff</color>
        <scale>1</scale>
        <Icon>
          <href>https://www.gstatic.com/mapspro/images/stock/503-wht-blank_maps.png</href>
        </Icon>
        <hotSpot x="32" xunits="pixels" y="64" yunits="insetPixels"/>
      </IconStyle>
      <LabelStyle>
        <scale>1</scale>
      </LabelStyle>
      <BalloonStyle>
        <text><![CDATA[<h3>$[name]</h3>]]></text>
      </BalloonStyle>
    </Style>
    <StyleMap id="icon-1899-FFEA00-nodesc">
      <Pair>
        <key>normal</key>
        <styleUrl>#icon-1899-FFEA00-nodesc-normal</styleUrl>
      </Pair>
      <Pair>
        <key>highlight</key>
        <styleUrl>#icon-1899-FFEA00-nodesc-highlight</styleUrl>
      </Pair>
    </StyleMap>
    <Style id="line-01579B-5263-nodesc-normal">
      <LineStyle>
        <color>ff9b5701</color>
        <width>5.263</width>
      </LineStyle>
      <BalloonStyle>
        <text><![CDATA[<h3>$[name]</h3>]]></text>
      </BalloonStyle>
    </Style>
    <Style id="line-01579B-5263-nodesc-highlight">
      <LineStyle>
        <color>ff9b5701</color>
        <width>7.8945</width>
      </LineStyle>
      <BalloonStyle>
        <text><![CDATA[<h3>$[name]</h3>]]></text>
      </BalloonStyle>
    </Style>
    <StyleMap id="line-01579B-5263-nodesc">
      <Pair>
        <key>normal</key>
        <styleUrl>#line-01579B-5263-nodesc-normal</styleUrl>
      </Pair>
      <Pair>
        <key>highlight</key>
        <styleUrl>#line-01579B-5263-nodesc-highlight</styleUrl>
      </Pair>
    </StyleMap>
    <Style id="line-1267FF-5000-nodesc-normal">
      <LineStyle>
        <color>ffff6712</color>
        <width>5</width>
      </LineStyle>
      <BalloonStyle>
        <text><![CDATA[<h3>$[name]</h3>]]></text>
      </BalloonStyle>
    </Style>
    <Style id="line-1267FF-5000-nodesc-highlight">
      <LineStyle>
        <color>ffff6712</color>
        <width>7.5</width>
      </LineStyle>
      <BalloonStyle>
        <text><![CDATA[<h3>$[name]</h3>]]></text>
      </BalloonStyle>
    </Style>
    <StyleMap id="line-1267FF-5000-nodesc">
      <Pair>
        <key>normal</key>
        <styleUrl>#line-1267FF-5000-nodesc-normal</styleUrl>
      </Pair>
      <Pair>
        <key>highlight</key>
        <styleUrl>#line-1267FF-5000-nodesc-highlight</styleUrl>
      </Pair>
    </StyleMap>
    <Folder>
      <name>TRAILS 1 (DELI RIVERSIDE)</name>
      <Placemark>
        <name>TRAILS 1 (DELI RIVERSIDE)</name>
        <styleUrl>#line-1267FF-5000-nodesc</styleUrl>
        <LineString>
          <tessellate>1</tessellate>
          <coordinates>
            98.67215,3.59463,0
            98.67214,3.59479,0
            98.67214,3.59508,0
            98.67215,3.59535,0
            98.67215,3.59546,0
            98.67215,3.59552,0
            98.67216,3.5956,0
            98.67217,3.59614,0
            98.67217,3.59618,0
            98.67217,3.59622,0
            98.67217,3.59626,0
            98.67215,3.59632,0
            98.67213,3.59638,0
            98.6721,3.59646,0
            98.67236,3.59655,0
            98.67241,3.59656,0
            98.67242,3.59656,0
            98.67243,3.59657,0
            98.67244,3.59658,0
            98.67245,3.59659,0
            98.67245,3.59664,0
            98.67238,3.59707,0
            98.67245,3.59664,0
            98.67245,3.59659,0
            98.67244,3.59658,0
            98.67243,3.59657,0
            98.67242,3.59656,0
            98.67241,3.59656,0
            98.67236,3.59655,0
            98.6721,3.59646,0
            98.67207,3.59651,0
            98.67197,3.59673,0
            98.67188,3.59689,0
            98.67184,3.59696,0
            98.67178,3.59702,0
            98.67171,3.59708,0
            98.67165,3.59713,0
            98.67157,3.59719,0
            98.67151,3.59724,0
            98.67142,3.5973,0
            98.67129,3.5974,0
            98.67122,3.59744,0
            98.67116,3.59748,0
            98.67114,3.59751,0
            98.67111,3.59754,0
            98.67108,3.59759,0
            98.67104,3.59766,0
            98.67101,3.59774,0
            98.67098,3.59779,0
            98.67095,3.59784,0
            98.67091,3.59789,0
            98.67086,3.59796,0
            98.67079,3.59804,0
            98.67074,3.5981,0
            98.67077,3.59812,0
            98.6708,3.59813,0
            98.67084,3.59813,0
            98.6709,3.59813,0
            98.67095,3.59812,0
            98.67109,3.59808,0
            98.67116,3.59805,0
            98.67124,3.59803,0
            98.67135,3.59801,0
            98.67143,3.59799,0
            98.67148,3.59799,0
            98.67157,3.59796,0
            98.67176,3.5979,0
            98.67192,3.59783,0
            98.67202,3.59777,0
            98.67214,3.59762,0
            98.67223,3.59748,0
            98.67229,3.59737,0
            98.67223,3.59748,0
            98.67214,3.59762,0
            98.67202,3.59777,0
            98.67192,3.59783,0
            98.67176,3.5979,0
            98.67157,3.59796,0
            98.67148,3.59799,0
            98.67143,3.59799,0
            98.67135,3.59801,0
            98.67124,3.59803,0
            98.67116,3.59805,0
            98.67109,3.59808,0
            98.67095,3.59812,0
            98.6709,3.59813,0
            98.67084,3.59813,0
            98.6708,3.59813,0
            98.67077,3.59812,0
            98.67074,3.5981,0
            98.67072,3.59812,0
            98.67056,3.5983,0
            98.67039,3.5985,0
            98.67029,3.59862,0
            98.67023,3.59871,0
            98.67018,3.59879,0
            98.67015,3.59886,0
            98.67012,3.59894,0
            98.67011,3.59901,0
            98.6701,3.59905,0
            98.6701,3.59911,0
            98.67011,3.59918,0
            98.67012,3.59928,0
            98.67014,3.59938,0
            98.67016,3.5995,0
            98.67019,3.59966,0
            98.67021,3.59974,0
            98.67026,3.59988,0
            98.67028,3.59997,0
            98.6703,3.60004,0
            98.67031,3.60012,0
            98.67033,3.60018,0
            98.67034,3.60025,0
            98.67035,3.60032,0
            98.67035,3.60039,0
            98.67036,3.60045,0
            98.67043,3.60088,0
            98.67046,3.60105,0
            98.67046,3.60108,0
            98.67045,3.60133,0
            98.67045,3.60141,0
            98.67045,3.60149,0
            98.67046,3.60156,0
            98.67046,3.60161,0
            98.67048,3.60168,0
            98.67049,3.60173,0
            98.67052,3.60185,0
            98.67056,3.602,0
            98.67059,3.60211,0
            98.67062,3.60219,0
            98.67064,3.60224,0
            98.67076,3.60245,0
            98.6708,3.60257,0
            98.67084,3.60276,0
            98.67093,3.60302,0
            98.67098,3.60315,0
            98.671,3.60319,0
            98.67103,3.60323,0
            98.6711,3.60335,0
            98.67116,3.60345,0
            98.67122,3.60359,0
            98.67124,3.60364,0
            98.67124,3.60367,0
            98.67125,3.60371,0
            98.67125,3.60375,0
            98.67124,3.6039,0
            98.67123,3.60394,0
            98.67115,3.60456,0
            98.67108,3.60506,0
            98.67104,3.60525,0
            98.67102,3.60533,0
            98.67098,3.60546,0
            98.67091,3.60569,0
            98.67088,3.60583,0
            98.67077,3.60619,0
            98.67077,3.60625,0
            98.67076,3.60631,0
            98.67077,3.60639,0
            98.67078,3.60658,0
            98.67076,3.60657,0
            98.67072,3.60656,0
            98.67069,3.60655,0
            98.67067,3.60655,0
            98.67066,3.60655,0
            98.67064,3.60655,0
            98.67062,3.60655,0
            98.6706,3.60657,0
            98.6706,3.60659,0
            98.6706,3.60662,0
            98.6706,3.60667,0
            98.67079,3.60667,0
            98.67078,3.60658,0
            98.67077,3.60643,0
          </coordinates>
        </LineString>
      </Placemark>
      <Placemark>
        <name>Jl. Guru Patimpus No.10, Silalas, Kec. Medan Bar., Kota Medan, Sumatera Utara 20111, Indonesia</name>
        <styleUrl>#icon-1899-DB4436-nodesc</styleUrl>
        <Point>
          <coordinates>
            98.672149,3.594633,0
          </coordinates>
        </Point>
      </Placemark>
      <Placemark>
        <name>Jl. Sei Deli No.217, Silalas, Kec. Medan Bar., Kota Medan, Sumatera Utara 20235, Indonesia</name>
        <styleUrl>#icon-1899-DB4436-nodesc</styleUrl>
        <Point>
          <coordinates>
            98.6707717,3.606432,0
          </coordinates>
        </Point>
      </Placemark>
    </Folder>
    <Folder>
      <name>TRAILS 2 (MALAY KAMPUNG LANDSCAPE)</name>
      <Placemark>
        <name>TRAILS 2 (MALAY KAMPUNG LANDSCAPE)</name>
        <styleUrl>#line-1267FF-5000-nodesc</styleUrl>
        <LineString>
          <tessellate>1</tessellate>
          <coordinates>
            98.66899,3.59467,0
            98.66899,3.59472,0
            98.66899,3.59479,0
            98.669,3.59482,0
            98.66902,3.59524,0
            98.66976,3.59518,0
            98.66979,3.59518,0
            98.66983,3.59564,0
            98.67008,3.5956,0
            98.67012,3.59559,0
            98.67013,3.59559,0
            98.67014,3.59558,0
            98.67015,3.59558,0
            98.67016,3.59557,0
            98.67018,3.59557,0
            98.67053,3.59555,0
            98.67053,3.5955,0
            98.67052,3.59547,0
            98.67051,3.59537,0
            98.67065,3.59543,0
            98.67071,3.59545,0
            98.67076,3.59546,0
            98.67083,3.59547,0
            98.67095,3.59548,0
            98.67095,3.59558,0
            98.67088,3.59608,0
            98.67082,3.59612,0
            98.6708,3.59613,0
            98.67079,3.59614,0
            98.67077,3.59614,0
            98.67075,3.59614,0
            98.67072,3.59614,0
            98.6707,3.59614,0
            98.67062,3.5961,0
            98.67061,3.59606,0
            98.6706,3.59598,0
            98.67058,3.59595,0
            98.67057,3.59593,0
            98.67057,3.59592,0
            98.67056,3.59591,0
            98.67054,3.59589,0
            98.6705,3.5959,0
            98.67048,3.59591,0
            98.67026,3.59592,0
            98.67002,3.59594,0
            98.66999,3.59594,0
            98.66996,3.59592,0
            98.66993,3.59597,0
            98.66991,3.59601,0
            98.6699,3.5961,0
            98.66988,3.59628,0
            98.66988,3.59631,0
            98.66987,3.59639,0
            98.66985,3.59651,0
            98.66957,3.59649,0
            98.66955,3.59649,0
            98.66954,3.59648,0
            98.66953,3.59647,0
            98.66952,3.59645,0
            98.66952,3.59642,0
            98.66951,3.59639,0
            98.66951,3.59637,0
            98.66951,3.59636,0
            98.6695,3.59636,0
            98.66949,3.59635,0
            98.66947,3.59633,0
            98.66942,3.59632,0
            98.66937,3.59631,0
            98.66902,3.59624,0
            98.66902,3.59639,0
            98.66902,3.59696,0
            98.66903,3.59708,0
            98.66925,3.59706,0
            98.66962,3.59703,0
            98.66985,3.59701,0
            98.66983,3.5974,0
            98.66985,3.5974,0
            98.66989,3.5974,0
            98.66997,3.59742,0
            98.66999,3.59743,0
            98.67008,3.59745,0
            98.66996,3.59784,0
            98.66988,3.59808,0
            98.66981,3.59826,0
            98.66977,3.5984,0
            98.66976,3.59847,0
            98.66977,3.59855,0
            98.66985,3.59878,0
            98.66966,3.59881,0
            98.66965,3.59904,0
            98.66965,3.59914,0
            98.66966,3.59929,0
            98.66969,3.59946,0
            98.66971,3.59964,0
            98.66972,3.59993,0
            98.66976,3.59993,0
            98.66976,3.60013,0
            98.66975,3.6003,0
            98.66975,3.6004,0
            98.66974,3.60055,0
            98.66977,3.60085,0
            98.67043,3.60086,0
            98.67037,3.60051,0
          </coordinates>
        </LineString>
      </Placemark>
      <Placemark>
        <name>Jl. H. Adam Malik No.10, Silalas, Kec. Medan Bar., Kota Medan, Sumatera Utara 20236, Indonesia</name>
        <styleUrl>#icon-1899-DB4436-nodesc</styleUrl>
        <Point>
          <coordinates>
            98.6689912,3.5946703,0
          </coordinates>
        </Point>
      </Placemark>
      <Placemark>
        <name>JM2C+553, Jl. Sei Deli, Silalas, Kec. Medan Bar., Kota Medan, Sumatera Utara 20234, Indonesia</name>
        <styleUrl>#icon-1899-DB4436-nodesc</styleUrl>
        <Point>
          <coordinates>
            98.6703736,3.6005095,0
          </coordinates>
        </Point>
      </Placemark>
    </Folder>
    <Folder>
      <name>Rute dari Jl. Klp. No.5, Silalas, Kec. Medan Bar., Kota Medan, Sumatera Utara 20231, Indonesia ke Jl. Jambu No.7C, Silalas, Kec. Medan Bar., Kota Medan, Sumatera Utara 20231, Indonesia</name>
      <Placemark>
        <name>Rute dari Jl. Klp. No.5, Silalas, Kec. Medan Bar., Kota Medan, Sumatera Utara 20231, Indonesia ke Jl. Jambu No.7C, Silalas, Kec. Medan Bar., Kota Medan, Sumatera Utara 20231, Indonesia</name>
        <styleUrl>#line-1267FF-5000-nodesc</styleUrl>
        <LineString>
          <tessellate>1</tessellate>
          <coordinates>
            98.67114,3.59408,0
            98.67111,3.59415,0
            98.67109,3.59418,0
            98.67107,3.59422,0
            98.67106,3.59427,0
            98.67106,3.59431,0
            98.67106,3.59435,0
            98.67105,3.59438,0
            98.67104,3.59443,0
            98.67104,3.59449,0
            98.67103,3.59453,0
            98.67099,3.59484,0
            98.67095,3.59548,0
            98.67104,3.59549,0
            98.67112,3.5955,0
            98.67121,3.5955,0
            98.67154,3.59553,0
            98.67136,3.59603,0
            98.67131,3.59615,0
            98.67129,3.59619,0
            98.6712,3.59645,0
            98.67146,3.59656,0
            98.6712,3.59645,0
            98.67117,3.59654,0
            98.67111,3.59668,0
            98.67108,3.59675,0
            98.67105,3.5968,0
            98.67102,3.59685,0
            98.67099,3.59691,0
            98.67097,3.59695,0
            98.67094,3.59703,0
            98.67065,3.59697,0
            98.67061,3.59699,0
            98.67061,3.59703,0
            98.67053,3.59748,0
            98.67052,3.59752,0
            98.67051,3.59756,0
            98.6705,3.5976,0
            98.67039,3.59797,0
            98.6705,3.59801,0
            98.67074,3.5981,0
            98.67079,3.59804,0
            98.67086,3.59796,0
            98.67091,3.59789,0
            98.67095,3.59784,0
            98.67098,3.59779,0
            98.67101,3.59774,0
            98.67104,3.59766,0
            98.67108,3.59759,0
            98.67111,3.59754,0
            98.67114,3.59751,0
            98.67116,3.59748,0
            98.67122,3.59744,0
            98.67129,3.5974,0
            98.67142,3.5973,0
            98.67151,3.59724,0
            98.67157,3.59719,0
            98.67165,3.59713,0
            98.67171,3.59708,0
            98.67178,3.59702,0
            98.67184,3.59696,0
            98.67188,3.59689,0
            98.67197,3.59673,0
            98.67207,3.59651,0
            98.6721,3.59645,0
            98.67213,3.59638,0
            98.67215,3.59632,0
            98.67217,3.59626,0
            98.67217,3.59622,0
            98.67217,3.59618,0
            98.67217,3.59614,0
            98.67216,3.5956,0
            98.67154,3.59553,0
            98.67156,3.59536,0
            98.67156,3.59527,0
            98.67157,3.59521,0
            98.67158,3.59514,0
            98.67159,3.59507,0
            98.6716,3.59502,0
            98.6716,3.59497,0
            98.67161,3.59488,0
            98.67161,3.59486,0
            98.67163,3.59458,0
            98.67163,3.59438,0
          </coordinates>
        </LineString>
      </Placemark>
      <Placemark>
        <name>Jl. Klp. No.5, Silalas, Kec. Medan Bar., Kota Medan, Sumatera Utara 20231, Indonesia</name>
        <styleUrl>#icon-1899-DB4436-nodesc</styleUrl>
        <Point>
          <coordinates>
            98.6711371,3.594077,0
          </coordinates>
        </Point>
      </Placemark>
      <Placemark>
        <name>Jl. Jambu No.7C, Silalas, Kec. Medan Bar., Kota Medan, Sumatera Utara 20231, Indonesia</name>
        <styleUrl>#icon-1899-DB4436-nodesc</styleUrl>
        <Point>
          <coordinates>
            98.6716336,3.5943843,0
          </coordinates>
        </Point>
      </Placemark>
    </Folder>
    <Folder>
      <name>PIN</name>
      <Placemark>
        <name>1. ROEMAH QOHWAH</name>
        <styleUrl>#icon-1577-0288D1-nodesc</styleUrl>
        <Point>
          <coordinates>
            98.6722438,3.5949041,0
          </coordinates>
        </Point>
      </Placemark>
      <Placemark>
        <name>20. THE PROMISED CAFE</name>
        <styleUrl>#icon-1577-0288D1-nodesc</styleUrl>
        <Point>
          <coordinates>
            98.6722371,3.5951036,0
          </coordinates>
        </Point>
      </Placemark>
      <Placemark>
        <name>2. DELI RIVERVIEW</name>
        <styleUrl>#icon-1899-FFEA00-nodesc</styleUrl>
        <Point>
          <coordinates>
            98.6720206,3.5967211,0
          </coordinates>
        </Point>
      </Placemark>
      <Placemark>
        <name>3. RUMAH ADAT TOBA</name>
        <styleUrl>#icon-1603-FFEA00-nodesc</styleUrl>
        <Point>
          <coordinates>
            98.6716123,3.5970763,0
          </coordinates>
        </Point>
      </Placemark>
      <Placemark>
        <name>RP8 WARUNG NASI BARKAH</name>
        <styleUrl>#icon-1603-FFEA00-nodesc</styleUrl>
        <Point>
          <coordinates>
            98.6709969,3.597639,0
          </coordinates>
        </Point>
      </Placemark>
      <Placemark>
        <name><![CDATA[4. STEVE'S COFFEE]]></name>
        <styleUrl>#icon-1577-0288D1-nodesc</styleUrl>
        <Point>
          <coordinates>
            98.6708553,3.5978892,0
          </coordinates>
        </Point>
      </Placemark>
      <Placemark>
        <name>17. MASJID AL MUFLIHIN</name>
        <styleUrl>#icon-1899-0F9D58-nodesc</styleUrl>
        <Point>
          <coordinates>
            98.6700969,3.5990608,0
          </coordinates>
        </Point>
      </Placemark>
      <Placemark>
        <name>6. MIE AYAM SOLO</name>
        <styleUrl>#icon-1577-0288D1-nodesc</styleUrl>
        <Point>
          <coordinates>
            98.6703687,3.6005944,0
          </coordinates>
        </Point>
      </Placemark>
      <Placemark>
        <name>5. BAKSO PANORAMA</name>
        <styleUrl>#icon-1577-0288D1-nodesc</styleUrl>
        <Point>
          <coordinates>
            98.6705575,3.5983242,0
          </coordinates>
        </Point>
      </Placemark>
      <Placemark>
        <name>RB3 RUMAH JL. SEI DELI 2</name>
        <styleUrl>#icon-1899-FFEA00-nodesc</styleUrl>
        <Point>
          <coordinates>
            98.6704518,3.6018052,0
          </coordinates>
        </Point>
      </Placemark>
      <Placemark>
        <name>RB1 Rumah Jl. Sei Deli</name>
        <styleUrl>#icon-1603-FFEA00-nodesc</styleUrl>
        <Point>
          <coordinates>
            98.6705809,3.5982426,0
          </coordinates>
        </Point>
      </Placemark>
      <Placemark>
        <name>8. TK ASASIL ISLAM dan RP12</name>
        <styleUrl>#icon-1603-FFEA00-nodesc</styleUrl>
        <Point>
          <coordinates>
            98.6707819,3.6025818,0
          </coordinates>
        </Point>
      </Placemark>
      <Placemark>
        <name>18. POHON BESAR JL. SEI DELI</name>
        <styleUrl>#icon-1899-FFEA00-nodesc</styleUrl>
        <Point>
          <coordinates>
            98.6707333,3.6023996,0
          </coordinates>
        </Point>
      </Placemark>
      <Placemark>
        <name>7. JEMBATAN KERETA API</name>
        <styleUrl>#icon-1899-FFEA00-nodesc</styleUrl>
        <Point>
          <coordinates>
            98.6704313,3.601147,0
          </coordinates>
        </Point>
      </Placemark>
      <Placemark>
        <name>19. SHINDOKA DOJO</name>
        <styleUrl>#icon-1899-FFEA00-nodesc</styleUrl>
        <Point>
          <coordinates>
            98.6711979,3.6040886,0
          </coordinates>
        </Point>
      </Placemark>
      <Placemark>
        <name>13. MASJID HAJI MARASET</name>
        <styleUrl>#icon-1899-0F9D58-nodesc</styleUrl>
        <Point>
          <coordinates>
            98.6709559,3.6054839,0
          </coordinates>
        </Point>
      </Placemark>
      <Placemark>
        <name>14. FLORIST</name>
        <styleUrl>#icon-1899-FFEA00-nodesc</styleUrl>
        <Point>
          <coordinates>
            98.6708052,3.6060816,0
          </coordinates>
        </Point>
      </Placemark>
      <Placemark>
        <name>12. BAMBOO BALI COFFEE</name>
        <styleUrl>#icon-1577-0288D1-nodesc</styleUrl>
        <Point>
          <coordinates>
            98.6707998,3.6064915,0
          </coordinates>
        </Point>
      </Placemark>
      <Placemark>
        <name>RP2 RUMAH TUAN GURU TOHIR</name>
        <styleUrl>#icon-1603-FFEA00-nodesc</styleUrl>
        <Point>
          <coordinates>
            98.6710337,3.5956623,0
          </coordinates>
        </Point>
      </Placemark>
      <Placemark>
        <name>RP1 RUMAH PANGGUNG JL. RAMBUTAN</name>
        <styleUrl>#icon-1603-FFEA00-nodesc</styleUrl>
        <Point>
          <coordinates>
            98.670635,3.5954023,0
          </coordinates>
        </Point>
      </Placemark>
      <Placemark>
        <name>RP3 RUMAH PANGGUNG JL. NAM NAM</name>
        <styleUrl>#icon-1603-FFEA00-nodesc</styleUrl>
        <Point>
          <coordinates>
            98.6704096,3.5959176,0
          </coordinates>
        </Point>
      </Placemark>
      <Placemark>
        <name>11. POS RONDA</name>
        <styleUrl>#icon-1899-FFEA00-nodesc</styleUrl>
        <Point>
          <coordinates>
            98.6698074,3.5965373,0
          </coordinates>
        </Point>
      </Placemark>
      <Placemark>
        <name>RP5 RUMAH PANGGUNG JL. LANGSAT</name>
        <styleUrl>#icon-1603-FFEA00-nodesc</styleUrl>
        <Point>
          <coordinates>
            98.6695419,3.5964115,0
          </coordinates>
        </Point>
      </Placemark>
      <Placemark>
        <name>16. GANG TUMBUHAN JL. CEMPEDAK</name>
        <styleUrl>#icon-1899-FFEA00-nodesc</styleUrl>
        <Point>
          <coordinates>
            98.6695123,3.5970486,0
          </coordinates>
        </Point>
      </Placemark>
      <Placemark>
        <name>15. WARUNG BUNDA LONG</name>
        <styleUrl>#icon-1577-0288D1-nodesc</styleUrl>
        <Point>
          <coordinates>
            98.6697904,3.5973567,0
          </coordinates>
        </Point>
      </Placemark>
      <Placemark>
        <name>RP6 RUMAH PANGGUNG JL. RAMBE</name>
        <styleUrl>#icon-1603-FFEA00-nodesc</styleUrl>
        <Point>
          <coordinates>
            98.6705682,3.5972749,0
          </coordinates>
        </Point>
      </Placemark>
      <Placemark>
        <name>RP7 RUMAH PANGGUNG JL. PALA</name>
        <styleUrl>#icon-1603-FFEA00-nodesc</styleUrl>
        <Point>
          <coordinates>
            98.67005,3.5978754,0
          </coordinates>
        </Point>
      </Placemark>
      <Placemark>
        <name>10. DAPUR SEDAP WANGI</name>
        <styleUrl>#icon-1577-0288D1-nodesc</styleUrl>
        <Point>
          <coordinates>
            98.6695771,3.5987785,0
          </coordinates>
        </Point>
      </Placemark>
      <Placemark>
        <name>RP9 RUMAH PANGGUNG JL. NENAS</name>
        <styleUrl>#icon-1603-FFEA00-nodesc</styleUrl>
        <Point>
          <coordinates>
            98.6696562,3.5991452,0
          </coordinates>
        </Point>
      </Placemark>
      <Placemark>
        <name>RB2 RUMAH JL. NENAS</name>
        <styleUrl>#icon-1603-FFEA00-nodesc</styleUrl>
        <Point>
          <coordinates>
            98.6697094,3.5995881,0
          </coordinates>
        </Point>
      </Placemark>
      <Placemark>
        <name>RP11 RUMAH PANGGUNG JL. NENAS 2</name>
        <styleUrl>#icon-1603-FFEA00-nodesc</styleUrl>
        <Point>
          <coordinates>
            98.6699575,3.6008725,0
          </coordinates>
        </Point>
      </Placemark>
      <Placemark>
        <name>9. TOKO KIPAS</name>
        <styleUrl>#icon-1684-FBC02D-nodesc</styleUrl>
        <Point>
          <coordinates>
            98.6702533,3.6008731,0
          </coordinates>
        </Point>
      </Placemark>
      <Placemark>
        <name>RP4 RUMAH PANGGUNG JL. PETAI</name>
        <styleUrl>#icon-1603-FFEA00-nodesc</styleUrl>
        <Point>
          <coordinates>
            98.670134,3.5955858,0
          </coordinates>
        </Point>
      </Placemark>
      <Placemark>
        <name>RP10 RUMAH PANGGUNG JL. JAMBU</name>
        <styleUrl>#icon-1603-FFEA00-nodesc</styleUrl>
        <Point>
          <coordinates>
            98.6715071,3.596563,0
          </coordinates>
        </Point>
      </Placemark>
      <Placemark>
        <name>21. JAJANAN VIRAL JL. NANGKA</name>
        <styleUrl>#icon-1577-0288D1-nodesc</styleUrl>
        <Point>
          <coordinates>
            98.6700012,3.5976513,0
          </coordinates>
        </Point>
      </Placemark>
      <Placemark>
        <name>22. JL. KEMIRI</name>
        <styleUrl>#icon-1899-FFEA00-nodesc</styleUrl>
        <Point>
          <coordinates>
            98.6706976,3.5975376,0
          </coordinates>
        </Point>
      </Placemark>
      <Placemark>
        <name><![CDATA[23. PERKUBURAN SEI DELI 1 (MASJID JAMI' SILALAS)]]></name>
        <styleUrl>#icon-1899-FFEA00-nodesc</styleUrl>
        <Point>
          <coordinates>
            98.6722551,3.5943124,0
          </coordinates>
        </Point>
      </Placemark>
      <Placemark>
        <name><![CDATA[24. MASJID JAMI' SILALAS SEI DELI]]></name>
        <styleUrl>#icon-1899-0F9D58-nodesc</styleUrl>
        <Point>
          <coordinates>
            98.6722579,3.5940715,0
          </coordinates>
        </Point>
      </Placemark>
      <Placemark>
        <name>25. PERKUBURAN SEI DELI 2</name>
        <styleUrl>#icon-1899-FFEA00-nodesc</styleUrl>
        <Point>
          <coordinates>
            98.6722231,3.5936539,0
          </coordinates>
        </Point>
      </Placemark>
      <Placemark>
        <name>26. SDN 060837</name>
        <styleUrl>#icon-1899-FFEA00-nodesc</styleUrl>
        <Point>
          <coordinates>
            98.6722609,3.5932291,0
          </coordinates>
        </Point>
      </Placemark>
      <Placemark>
        <name>27. PERKUBURAN SEI DELI 3</name>
        <styleUrl>#icon-1899-FFEA00-nodesc</styleUrl>
        <Point>
          <coordinates>
            98.6725209,3.5925741,0
          </coordinates>
        </Point>
      </Placemark>
      <Placemark>
        <name>28. KAMPUNG TEPI SUNGAI DELI</name>
        <styleUrl>#icon-1899-FFEA00-nodesc</styleUrl>
        <Point>
          <coordinates>
            98.6729581,3.5921378,0
          </coordinates>
        </Point>
      </Placemark>
      <Placemark>
        <name>29. UNIVERSITAS IBBI</name>
        <styleUrl>#icon-1899-FFEA00-nodesc</styleUrl>
        <Point>
          <coordinates>
            98.6721266,3.5924938,0
          </coordinates>
        </Point>
      </Placemark>
      <Placemark>
        <name>30. BAKSO DAN NASI GORENG MORO SENENG</name>
        <styleUrl>#icon-1577-0288D1-nodesc</styleUrl>
        <Point>
          <coordinates>
            98.6716145,3.5923192,0
          </coordinates>
        </Point>
      </Placemark>
      <Placemark>
        <name>31. RUMAH MAKAN SINAR PAGI</name>
        <styleUrl>#icon-1577-0288D1-nodesc</styleUrl>
        <Point>
          <coordinates>
            98.6710335,3.5922941,0
          </coordinates>
        </Point>
      </Placemark>
      <Placemark>
        <name>32. PERTOKOAN JL. GATOT SUBROTO</name>
        <styleUrl>#icon-1899-FFEA00-nodesc</styleUrl>
        <Point>
          <coordinates>
            98.6702593,3.5925104,0
          </coordinates>
        </Point>
      </Placemark>
      <Placemark>
        <name>33. TUGU JL. GATOT SUBROTO</name>
        <styleUrl>#icon-1899-FFEA00-nodesc</styleUrl>
        <Point>
          <coordinates>
            98.6689574,3.5931313,0
          </coordinates>
        </Point>
      </Placemark>
      <Placemark>
        <name>34. KANTOR LURAH SILALAS</name>
        <styleUrl>#icon-1899-FFEA00-nodesc</styleUrl>
        <Point>
          <coordinates>
            98.6711537,3.5929288,0
          </coordinates>
        </Point>
      </Placemark>
      <Placemark>
        <name>35. KELENTENG JIT SIEN</name>
        <styleUrl>#icon-1899-FFEA00-nodesc</styleUrl>
        <Point>
          <coordinates>
            98.6687898,3.5948794,0
          </coordinates>
        </Point>
      </Placemark>
      <Placemark>
        <name>36. SMP NEGERI 7 MEDAN</name>
        <styleUrl>#icon-1899-FFEA00-nodesc</styleUrl>
        <Point>
          <coordinates>
            98.6691461,3.594675,0
          </coordinates>
        </Point>
      </Placemark>
      <Placemark>
        <name>37. WARUNG MAKAN JL. GURU PATIMPUS</name>
        <styleUrl>#icon-1577-0288D1-nodesc</styleUrl>
        <Point>
          <coordinates>
            98.6739726,3.5949967,0
          </coordinates>
        </Point>
      </Placemark>
      <Placemark>
        <name>38. JEMBATAN JL. GURU PATIMPUS</name>
        <styleUrl>#icon-1899-FFEA00-nodesc</styleUrl>
        <Point>
          <coordinates>
            98.6726423,3.5946272,0
          </coordinates>
        </Point>
      </Placemark>
    </Folder>
    <Folder>
      <name>TRAILS 4 SILALAS OLD MOSQUE</name>
      <Placemark>
        <name>TRAILS 4 SILALAS OLD MOSQUE</name>
        <styleUrl>#line-1267FF-5000-nodesc</styleUrl>
        <LineString>
          <tessellate>1</tessellate>
          <coordinates>
            98.67402,3.59489,0
            98.67377,3.59482,0
            98.6738,3.59469,0
            98.6737,3.59466,0
            98.67361,3.59464,0
            98.6735,3.59464,0
            98.67339,3.59463,0
            98.67321,3.59462,0
            98.67298,3.59461,0
            98.67249,3.59456,0
            98.67242,3.59456,0
            98.67232,3.59455,0
            98.67222,3.59453,0
            98.67215,3.59451,0
            98.67217,3.59393,0
            98.67217,3.5938,0
            98.67217,3.59367,0
            98.67217,3.5936,0
            98.67217,3.59354,0
            98.67218,3.59329,0
            98.67194,3.59325,0
            98.67176,3.59323,0
            98.67159,3.5932,0
            98.67141,3.59317,0
            98.67123,3.59314,0
            98.67124,3.59312,0
            98.67125,3.59311,0
            98.67125,3.5931,0
            98.67124,3.59309,0
            98.67124,3.59308,0
            98.67124,3.59306,0
            98.67125,3.59303,0
            98.67112,3.59304,0
            98.67076,3.59306,0
            98.67058,3.59307,0
            98.6704,3.59307,0
            98.67004,3.59309,0
            98.66986,3.5931,0
            98.66968,3.59311,0
            98.66968,3.59329,0
            98.66968,3.59347,0
            98.66968,3.5935,0
          </coordinates>
        </LineString>
      </Placemark>
      <Placemark>
        <name>Jl. Laboratorium No.4K, Kesawan, Kec. Medan Bar., Kota Medan, Sumatera Utara 20236, Indonesia</name>
        <styleUrl>#icon-1899-DB4436-nodesc</styleUrl>
        <Point>
          <coordinates>
            98.6740191,3.5948868,0
          </coordinates>
        </Point>
      </Placemark>
      <Placemark>
        <name>Jl. Guru Patimpus No.37-39, Silalas, Kec. Medan Bar., Kota Medan, Sumatera Utara 20114, Indonesia</name>
        <styleUrl>#icon-1899-DB4436-nodesc</styleUrl>
        <Point>
          <coordinates>
            98.6696815,3.5935047,0
          </coordinates>
        </Point>
      </Placemark>
    </Folder>
    <Folder>
      <name>TRAILS 5 KAMPUNG AND GREEN CEMETERY</name>
      <Placemark>
        <name>Garis 2</name>
        <styleUrl>#line-01579B-5263-nodesc</styleUrl>
        <LineString>
          <tessellate>1</tessellate>
          <coordinates>
            98.672175,3.5932634,0
            98.6721911,3.5930225,0
            98.6721858,3.5928191,0
            98.6721804,3.592712,0
            98.6724164,3.5926103,0
            98.6726793,3.5925567,0
            98.6729368,3.5925621,0
            98.6729797,3.5924068,0
            98.6729958,3.5922355,0
            98.6729368,3.5920588,0
            98.6727437,3.59185,0
            98.672572,3.5917001,0
            98.6724647,3.5918125,0
            98.6722287,3.5922141,0
            98.6720624,3.5925139,0
            98.6718693,3.5923961,0
            98.6714455,3.592273,0
            98.6711343,3.5922569,0
            98.670909,3.5922783,0
            98.6690664,3.592811,0
            98.6689711,3.5930078,0
            98.6689617,3.5933009,0
          </coordinates>
        </LineString>
      </Placemark>
    </Folder>
  </Document>
</kml>
